subregion,country,region,period.num,period,industry,site.id,site,unit,site.unit,BP.cal.median,NISP,Rangifer,Equus,Mammuthus,Bos,Cervus,Alces.or.Megaloceros,Capra,Rupicapra,Saiga,Sus,Capreolus,Ungulate,Oryctolagus,Lepus,Lagomorph,Castor,Marmota,Vulpes.or.Alopex,Canis,Lynx,Felis,Panthera,Meles,Crocuta,Gulo,Lutra,Martes,Mustela,Ursus,Carnivore,Rodentia.small,Insectivora,Phocidae,bird,reptile,turtle,fish,terrestrial.shell,marine.shell,shell.sp,Ident.fraction,large.herbivore,,small.herbivore,carnivore,lg.herbivore.index,shannon,shannon.mammal,simpson,simpson.mammal,elevation,distcoast.modern,distcoast.contemp,latitude,longitude,invsimpson.mammal,invsimpson
Northeast,Italy,NW Italy,3,End Glacial,Late epigravettian,51,Arene Candide,M1,Arene Candide M1,11577,927,0,0,0,0,317,7,54,2,0,62,60,0,0,59,0,0,0,18,5,1,12,0,1,0,0,0,8,0,82,0,34,22,0,0,0,0,0,0,0,0,0.8,502,,59,127,0.8948,1.9697,1.9697,0.7772,0.7772,103,0.38,1.49,44.1618,8.3264,4.49,4.49
Northeast,Italy,NW Italy,3,End Glacial,Late epigravettian,51,Arene Candide,M2,Arene Candide M2,12746,1915,0,0,0,1,779,4,77,6,0,218,195,0,0,79,0,1,4,29,10,0,17,0,4,0,0,0,14,1,53,0,39,38,0,0,0,0,0,0,0,0,0.82,1280,,84,128,0.9384,1.7540,1.7540,0.7108,0.7108,103,0.38,1.49,44.1618,8.3264,3.46,3.46
Northeast,Italy,NW Italy,3,End Glacial,Late epigravettian,51,Arene Candide,M3,Arene Candide M3,13624,1623,0,0,0,0,697,3,54,7,0,178,156,0,0,100,0,0,0,11,4,2,21,0,1,0,2,0,7,0,24,0,16,37,0,0,0,0,0,0,0,0,0.81,1095,,100,72,0.9163,1.6304,1.6304,0.6800,0.6800,103,0.38,1.49,44.1618,8.3264,3.12,3.12
Northeast,Italy,NW Italy,3,End Glacial,Late epigravettian,51,Arene Candide,M4,Arene Candide M4,13624,822,0,0,0,0,321,0,29,3,0,146,95,0,0,36,0,0,2,7,6,3,4,0,3,0,0,0,4,3,11,0,8,12,0,0,0,0,0,0,0,0,0.84,594,,38,41,0.9399,1.6891,1.6891,0.7168,0.7168,103,0.38,1.49,44.1618,8.3264,3.53,3.53
Northeast,Italy,NW Italy,3,End Glacial,Late epigravettian,51,Arene Candide,M5,Arene Candide M5,NA,1451,0,0,0,4,354,3,140,4,0,83,67,0,0,106,0,0,4,14,10,16,6,0,2,0,0,0,6,5,13,0,3,6,0,0,0,0,0,0,0,0,0.58,655,,110,72,0.8562,1.8765,1.8765,0.7646,0.7646,103,0.38,1.49,44.1618,8.3264,4.25,4.25
Northeast,Italy,NW Italy,1,LGM,Upper Paleolithic,51,Arene Candide,P1,Arene Candide P1,20323,160,0,0,0,0,14,1,28,4,0,1,0,0,29,15,0,0,1,2,0,19,1,0,0,0,0,0,1,2,0,0,0,5,0,0,0,0,0,0,0,0,0.77,48,,45,25,0.5161,2.0412,2.0412,0.8373,0.8373,103,0.38,1.85,44.1618,8.3264,6.15,6.15
Northeast,Italy,NW Italy,1,LGM,Upper Paleolithic,51,Arene Candide,P10,Arene Candide P10,NA,131,0,0,0,2,5,0,30,0,0,1,1,0,0,7,0,0,0,1,1,2,3,4,0,0,0,0,11,3,1,0,0,1,0,0,0,0,0,0,0,0,0.56,39,,7,26,0.8478,2.0303,2.0303,0.7855,0.7855,103,0.38,1.85,44.1618,8.3264,4.66,4.66
Northeast,Italy,NW Italy,1,LGM,Upper Paleolithic,51,Arene Candide,P11,Arene Candide P11,NA,80,0,0,0,2,6,0,5,0,0,0,1,0,0,1,0,0,0,0,0,0,0,2,0,1,0,0,0,1,27,0,0,0,0,0,0,0,0,0,0,0,0.58,14,,1,31,0.9333,1.4252,1.4252,0.6210,0.6210,103,0.38,1.85,44.1618,8.3264,2.64,2.64
Northeast,Italy,NW Italy,1,LGM,Upper Paleolithic,51,Arene Candide,P12,Arene Candide P12,27676,91,0,0,0,0,4,0,9,0,0,0,0,0,0,1,0,0,0,0,0,0,4,4,0,0,0,0,0,0,1,0,0,0,0,0,0,0,0,0,0,0,0.25,13,,1,9,0.9286,1.5524,1.5524,0.7524,0.7524,103,0.38,1.85,44.1618,8.3264,4.04,4.04
Northeast,Italy,NW Italy,1,LGM,Upper Paleolithic,51,Arene Candide,P13,Arene Candide P13,NA,42,0,0,0,0,3,0,3,0,0,0,0,0,0,1,0,0,1,0,0,0,0,0,0,0,0,0,2,5,3,0,1,0,0,0,0,0,0,0,0,0,0.45,6,,2,10,0.7500,1.9275,1.9275,0.8366,0.8366,103,0.38,1.85,44.1618,8.3264,6.12,6.12
Northeast,Italy,NW Italy,1,LGM,Upper Paleolithic,51,Arene Candide,P2,Arene Candide P2,NA,102,0,0,0,2,23,1,12,0,0,1,0,0,26,2,0,0,0,0,0,7,0,0,0,0,0,0,0,6,0,0,0,0,0,0,0,0,0,0,0,0,0.78,39,,28,13,0.5821,1.7096,1.7096,0.7744,0.7744,103,0.38,1.85,44.1618,8.3264,4.43,4.43
Northeast,Italy,NW Italy,1,LGM,Upper Paleolithic,51,Arene Candide,P3,Arene Candide P3,22868,156,0,0,0,1,19,1,64,0,0,0,1,0,24,4,0,0,0,0,0,9,0,0,1,0,0,0,0,2,0,0,0,0,0,0,0,0,0,0,0,0,0.81,86,,28,12,0.7544,1.4625,1.4625,0.6764,0.6764,103,0.38,1.85,44.1618,8.3264,3.09,3.09
Northeast,Italy,NW Italy,1,LGM,Upper Paleolithic,51,Arene Candide,P4,Arene Candide P4,22740,465,0,0,0,3,11,1,200,0,0,0,3,0,41,19,0,0,2,4,0,14,0,0,0,0,0,0,2,21,0,0,0,1,0,0,0,0,0,0,0,0,0.69,218,,62,41,0.7786,1.3956,1.3956,0.5868,0.5868,103,0.38,1.85,44.1618,8.3264,2.42,2.42
Northeast,Italy,NW Italy,1,LGM,Upper Paleolithic,51,Arene Candide,P5,Arene Candide P5,NA,424,0,0,0,2,10,1,142,2,0,4,26,0,17,9,0,0,0,3,0,5,0,0,0,0,0,0,0,16,0,0,0,0,1,0,0,0,0,0,0,0,0.56,187,,26,24,0.8779,1.5083,1.5083,0.6182,0.6182,103,0.38,1.85,44.1618,8.3264,2.62,2.62
Northeast,Italy,NW Italy,1,LGM,Upper Paleolithic,51,Arene Candide,P6,Arene Candide P6,NA,104,0,0,0,3,8,2,27,0,0,1,2,0,12,11,0,0,0,3,0,7,0,0,0,0,0,0,2,10,0,0,0,0,0,0,0,0,0,0,0,0,0.85,43,,23,22,0.6515,2.0999,2.0999,0.8401,0.8401,103,0.38,1.85,44.1618,8.3264,6.26,6.26
Northeast,Italy,NW Italy,1,LGM,Upper Paleolithic,51,Arene Candide,P7,Arene Candide P7,23346,399,0,0,5,29,14,26,106,0,0,1,8,0,6,42,0,0,2,8,3,29,1,0,0,0,0,0,2,72,1,0,0,1,0,0,0,0,0,0,0,0,0.89,189,,50,116,0.7908,2.1268,2.1268,0.8347,0.8347,103,0.38,1.85,44.1618,8.3264,6.05,6.05
Northeast,Italy,NW Italy,1,LGM,Upper Paleolithic,51,Arene Candide,P8,Arene Candide P8,23580,103,0,0,0,3,5,8,24,0,0,1,1,0,1,9,0,0,0,6,0,5,0,0,0,0,0,0,0,6,0,0,0,0,0,0,0,0,0,0,0,0,0.67,42,,10,17,0.8077,2.0084,2.0084,0.8204,0.8204,103,0.38,1.85,44.1618,8.3264,5.57,5.57
Northeast,Italy,NW Italy,1,LGM,Upper Paleolithic,51,Arene Candide,P9,Arene Candide P9,24638,359,0,0,0,7,13,6,29,0,0,1,0,0,2,35,0,0,2,22,1,33,0,1,1,0,0,0,12,75,1,0,0,4,0,0,0,0,0,0,0,0,0.68,56,,39,146,0.5895,2.1333,2.1333,0.8386,0.8386,103,0.38,1.85,44.1618,8.3264,6.19,6.19
N Central,France,Languedoc,1,LGM,Middle Magdalenian,14,Bois des Brousses,1A,Bois des Brousses 1A,19112,430,0,0,0,0,1,0,3,0,0,1,0,0,7,2,0,0,0,1,0,0,0,0,0,0,0,0,0,0,0,0,0,0,0,NA,0,0,NA,0,0,0,0.03,5,,9,1,0.3571,NA,1.4878,NA,0.7111,66,30.78,85.85,43.6833,3.5833,3.46,NA
N Central,France,Languedoc,1,LGM,Middle Magdalenian,14,Bois des Brousses,2B,Bois des Brousses 2B,19347,1230,0,0,0,0,1,0,2,0,0,0,0,0,15,1,0,0,0,1,0,0,0,0,0,0,0,0,0,0,0,0,0,0,0,NA,0,0,NA,0,0,0,0.02,3,,16,1,0.1579,NA,0.8954,NA,0.4200,66,30.78,85.85,43.6833,3.5833,1.72,NA
Southeast,Italy,S Italy,1,LGM,Early Gravettian,54,Cala,1d,Cala 1d,NA,158,0,0,0,2,91,0,0,12,0,6,40,0,0,5,0,0,0,2,0,0,0,0,0,0,0,0,0,0,0,0,0,0,0,0,0,0,0,0,0,0,1,151,,5,2,0.9679,1.2054,1.2054,0.5957,0.5957,14,0.03,3.66,40.0006,15.3811,2.47,2.47
Southeast,Italy,S Italy,1,LGM,Early Gravettian,54,Cala,1m,Cala 1m,30373,246,0,0,0,2,151,0,5,16,0,11,47,0,0,14,0,0,0,0,0,0,0,0,0,0,0,0,0,0,0,0,0,0,0,0,0,0,0,0,0,0,1,232,,14,0,0.9431,1.2139,1.2139,0.5768,0.5768,14,0.03,3.66,40.0006,15.3811,2.36,2.36
Southeast,Italy,S Italy,1,LGM,Early Gravettian,54,Cala,2,Cala 2,NA,375,0,0,0,5,288,0,7,10,0,16,41,0,0,6,0,0,0,0,0,0,1,1,0,0,0,0,0,0,0,0,0,0,0,0,0,0,0,0,0,0,1,367,,6,2,0.9839,0.9056,0.9056,0.3949,0.3949,14,0.03,3.66,40.0006,15.3811,1.65,1.65
Southeast,Italy,S Italy,1,LGM,Early Gravettian,54,Cala,3d,Cala 3d,30770,559,0,0,0,0,446,0,9,58,0,6,32,0,0,1,0,0,0,0,0,0,0,6,0,0,0,0,0,0,1,0,0,0,0,0,0,0,0,0,0,0,1,551,,1,7,0.9982,0.7655,0.7655,0.3489,0.3489,14,0.03,3.66,40.0006,15.3811,1.54,1.54
Southeast,Italy,S Italy,1,LGM,Early Gravettian,54,Cala,3m,Cala 3m,NA,150,0,0,0,5,119,0,0,11,0,5,7,0,0,2,0,0,0,0,0,0,1,0,0,0,0,0,0,0,0,0,0,0,0,0,0,0,0,0,0,0,1,147,,2,1,0.9866,0.8360,0.8360,0.3606,0.3606,14,0.03,3.66,40.0006,15.3811,1.56,1.56
N Central,France,Provence,4,Holocene,Mesolithic,32,Charasse 2,4-3,Charasse 2 4-3,NA,4,0,0,0,0,1,0,0,0,0,1,0,0,0,0,0,0,0,1,0,0,0,0,0,0,0,0,0,0,0,0,0,0,0,0,0,0,0,0,0,0,0.75,2,,0,1,1.0000,1.0986,1.0986,0.6667,0.6667,289,87.5,92.65,44.2176,5.138,3.00,3.00
N Central,France,Provence,4,Holocene,Mesolithic,40,Châteauneuf-les-Martigues,8-7,Châteauneuf-les-Martigues 8-7,8306,3555,0,0,0,16,50,0,0,0,0,11,0,0,NA,NA,0,0,0,1,0,1,1,0,0,0,0,0,0,0,0,0,0,0,0,0,0,0,0,NA,NA,0,0.02,77,,NA,3,NA,NA,NA,NA,NA,48,2.16,3.77,43.3,5.4,NA,NA
N Central,France,Languedoc,3,End Glacial,Epipaleolithic,16,Chazelles,NA,Chazelles,10770,7926,0,1,0,1,1,0,1,0,0,1,0,0,214,1,0,0,0,1,1,0,0,0,0,0,0,0,0,0,1,0,0,0,0,0,0,0,0,0,0,0,0.03,5,,215,3,0.0227,0.2578,0.2578,0.0789,0.0789,171,84.54,104.23,44.316,4.218,1.09,1.09
N Central,France,Provence,3,End Glacial,Epipaleolithic,30,Chinchon 1,10-9,Chinchon 1 10-9,NA,7,0,1,0,1,1,0,0,0,0,1,0,0,0,0,0,0,0,0,0,0,0,0,0,0,0,0,0,0,0,0,0,0,0,0,0,0,0,0,0,0,0.57,4,,0,0,1.0000,1.3863,1.3863,0.7500,0.7500,155,56.08,66.79,43.93,5.1,4.00,4.00
N Central,France,Provence,2,Late Pleniglacial,Upper Magdalenian,30,Chinchon 1,12-11,Chinchon 1 12-11,NA,90,1,1,0,0,2,0,1,1,0,1,0,0,1,0,0,1,1,1,0,0,0,0,0,0,0,0,0,0,0,0,0,0,0,0,0,0,0,0,0,0,0.12,7,,3,1,0.7000,2.2719,2.2719,0.8926,0.8926,155,56.08,71.94,43.93,5.1,9.31,9.31
N Central,France,Provence,2,Late Pleniglacial,Upper Magdalenian,30,Chinchon 1,13,Chinchon 1 13,NA,27,1,1,0,0,1,0,1,0,0,0,0,0,0,0,0,0,0,0,0,0,1,0,0,0,0,0,0,0,0,0,0,0,0,0,0,0,0,0,0,0,0.19,4,,0,1,1.0000,1.6094,1.6094,0.8000,0.8000,155,56.08,71.94,43.93,5.1,5.00,5.00
N Central,France,Provence,2,Late Pleniglacial,Tardigravettian,30,Chinchon 1,16-15,Chinchon 1 16-15,14314,596,1,6,0,0,1,0,2,0,1,1,1,0,4,0,0,0,0,1,0,0,0,0,0,0,0,0,0,0,0,0,0,0,0,0,0,0,0,0,0,0,0.03,13,,4,1,0.7647,1.9080,1.9080,0.8086,0.8086,155,56.08,71.94,43.93,5.1,5.23,5.23
N Central,France,Provence,2,Late Pleniglacial,Tardigravettian,30,Chinchon 1,17,Chinchon 1 17,NA,107,1,1,0,0,0,0,1,0,0,0,1,0,2,0,0,0,0,0,0,0,0,0,0,0,0,0,0,0,0,0,0,0,0,0,0,0,0,0,0,0,0.06,4,,2,0,0.6667,1.5607,1.5607,0.7778,0.7778,155,56.08,71.94,43.93,5.1,4.50,4.50
N Central,France,Provence,2,Late Pleniglacial,Tardigravettian,30,Chinchon 1,18,Chinchon 1 18,NA,237,0,1,0,0,0,0,0,0,1,0,0,0,5,0,0,0,0,0,0,0,0,0,0,0,0,0,0,0,0,0,0,0,0,0,0,0,0,0,0,0,0.03,2,,5,0,0.2857,0.7963,0.7963,0.4490,0.4490,155,56.08,71.94,43.93,5.1,1.81,1.81
N Central,France,Provence,4,Holocene,Mesolithic,31,Chinchon 2,NA,Chinchon 2,NA,40,0,0,0,3,1,0,0,0,0,2,1,0,6,0,0,1,0,1,0,0,0,0,0,0,0,0,0,0,0,0,0,0,0,0,0,NA,0,0,0,0,0.38,7,,7,1,0.5000,NA,1.6792,NA,0.7644,155,56.08,60.67,43.93,5.1,4.25,NA
Northeast,Italy,NE Italy,2,Late Pleniglacial,Epigravettian,46,Clusantin,4,Clusantin 4,15684,27160,0,0,0,0,6,2,6,2,0,2,0,26,0,1,0,0,470,0,1,0,0,0,0,0,0,0,0,2,0,1,0,0,0,2,0,0,0,0,0,0,0.02,44,,471,4,0.0854,0.4881,0.4647,0.1834,0.1771,655,59.92,150.92,46.2941,12.9422,1.22,1.22
N Central,France,Languedoc,3,End Glacial,Epipaleolithic,18,Colombier II,A-B,Colombier II A-B,12884,70,0,0,0,1,4,1,10,1,0,0,1,0,1,0,0,0,0,0,0,0,0,0,0,0,0,0,0,0,0,0,0,0,0,0,0,0,0,0,0,0,0.27,18,,1,0,0.9474,1.4407,1.4407,0.6648,0.6648,227,90.99,110.68,44.3485,4.3973,2.98,2.98
N Central,France,Languedoc,3,End Glacial,Epipaleolithic,18,Colombier II,C,Colombier II C,13062,1649,0,0,0,0,3,1,6,1,0,0,1,0,NA,NA,0,NA,0,0,0,0,NA,0,0,0,0,0,0,0,0,0,0,0,0,0,0,0,0,0,0,0,0.01,12,,NA,0,NA,NA,NA,NA,NA,227,90.99,110.68,44.3485,4.3973,NA,NA
N Central,France,Languedoc,2,Late Pleniglacial,Upper Magdalenian/ Upper Salpetrian,18,Colombier II,D,Colombier II D,15903,66,0,1,0,0,1,0,1,1,0,0,0,0,NA,NA,0,0,0,0,0,0,0,0,0,0,0,0,0,0,0,0,0,0,0,0,0,0,0,0,0,0,0.06,4,,NA,0,NA,NA,NA,NA,NA,227,90.99,121.13,44.3485,4.3973,NA,NA
N Central,France,Provence,3,End Glacial,Epipaleolithic,35,Combe-Buisson,4-3,Combe-Buisson 4-3,NA,14,0,0,0,1,2,0,3,0,0,0,0,0,NA,0,0,0,0,1,0,0,1,0,0,0,0,0,0,0,0,0,0,0,0,0,0,0,0,NA,0,0,0.57,6,,NA,2,NA,NA,NA,NA,NA,552,47.68,51.96,43.81,5.26,NA,NA
N Central,France,Provence,2,Late Pleniglacial,Upper Magdalenian,36,Combette,2,Combette 2,NA,15,0,0,0,0,1,0,1,0,0,0,0,0,0,1,0,0,0,0,0,0,0,0,0,0,0,0,0,0,0,0,0,0,0,0,0,0,0,0,0,0,0.2,2,,1,0,0.6667,1.0986,1.0986,0.6667,0.6667,299,47.97,59.83,43.7935,5.3358,3.00,3.00
N Central,France,Provence,2,Late Pleniglacial,Upper Magdalenian,36,Combette,3,Combette 3,NA,19,0,0,0,0,1,0,1,0,0,0,0,0,0,0,0,1,1,0,0,0,0,0,0,0,0,0,0,0,0,0,0,0,0,0,0,0,0,0,0,0,0.21,2,,2,0,0.5000,1.3863,1.3863,0.7500,0.7500,299,47.97,59.83,43.7935,5.3358,4.00,4.00
N Central,France,Provence,3,End Glacial,Epipaleolithic,27,Cornille,10 inf.,Cornille 10 inf.,12136,43,0,18,0,12,9,0,0,0,1,0,0,0,0,0,0,0,0,0,0,0,0,0,0,0,0,0,0,0,0,0,0,0,0,0,0,0,0,0,0,0,0.93,40,,0,0,1.0000,1.1484,1.1484,0.6563,0.6563,33,12.54,23.65,43.5449,4.96,2.91,2.91
N Central,France,Provence,3,End Glacial,Epipaleolithic,27,Cornille,10 sup.,Cornille 10 sup.,12491,33,0,9,0,15,7,0,0,0,0,0,0,0,0,0,0,0,0,0,0,0,0,0,0,0,0,0,0,0,0,0,0,0,0,0,0,0,0,0,0,0,0.94,31,,0,0,1.0000,1.0463,1.0463,0.6306,0.6306,33,12.54,23.65,43.5449,4.96,2.71,2.71
N Central,France,Provence,3,End Glacial,Epipaleolithic,27,Cornille,11,Cornille 11,NA,12,0,1,0,7,4,0,0,0,0,0,0,0,0,0,0,0,0,0,0,0,0,0,0,0,0,0,0,0,0,0,0,0,0,0,0,0,0,0,0,0,1,12,,0,0,1.0000,0.8877,0.8877,0.5417,0.5417,33,12.54,23.65,43.5449,4.96,2.18,2.18
N Central,France,Provence,3,End Glacial,Upper Magdalenian,27,Cornille,12,Cornille 12,12714,19,0,1,0,1,1,0,0,0,2,0,0,0,NA,0,0,0,0,0,0,0,0,0,0,0,0,0,0,0,0,0,0,0,0,0,0,0,0,0,0,0,0.26,5,,NA,0,NA,NA,NA,NA,NA,33,12.54,23.65,43.5449,4.96,NA,NA
N Central,France,Provence,4,Holocene,Mesolithic,27,Cornille,6,Cornille 6,7876,67,0,27,0,33,6,0,0,0,0,1,0,0,0,0,0,0,0,0,0,0,0,0,0,0,0,0,0,0,0,0,0,0,0,0,0,0,0,0,0,0,1,67,,0,0,1.0000,0.9939,0.9939,0.5868,0.5868,33,12.54,16.68,43.5449,4.96,2.42,2.42
N Central,France,Provence,3,End Glacial,Epipaleolithic,27,Cornille,9,Cornille 9,11796,19,0,5,0,11,3,0,0,0,0,0,0,0,0,0,0,0,0,0,0,0,0,0,0,0,0,0,0,0,0,0,0,0,0,0,0,0,0,0,0,0,1,19,,0,0,1.0000,0.9592,0.9592,0.5706,0.5706,33,12.54,23.65,43.5449,4.96,2.33,2.33
N Central,France,Languedoc,3,End Glacial,Epipaleolithic,15,Fontaine du Pila,NA,Fontaine du Pila,NA,2215,0,1,0,2,2,0,2,0,0,0,0,0,40,1,0,0,0,0,0,0,0,0,0,0,0,0,0,0,0,0,0,0,0,3,0,NA,NA,0,0,0,0.02,7,,41,0,0.1458,NA,0.7105,NA,0.2995,29,10.56,25.58,43.6146,3.8814,1.43,NA
N Central,France,Provence,3,End Glacial,Epipaleolithic,37,Gauthier,NA,Gauthier,NA,171,0,0,0,0,1,0,1,0,0,1,0,0,12,1,0,0,0,1,1,1,1,0,0,0,0,0,0,0,0,0,0,0,0,0,0,0,0,0,0,0,0.12,3,,13,4,0.1875,1.5048,1.5048,0.6200,0.6200,683,80.38,83.66,44.092,5.3789,2.63,2.63
N Central,France,Provence,4,Holocene,Mesolithic,34,Gramari,3a1,Gramari 3a1,8689,47,0,0,0,1,1,0,1,0,0,1,1,0,0,0,0,0,0,0,0,0,0,0,0,0,0,0,0,0,0,0,0,0,0,0,0,0,0,NA,0,0,0.11,5,,0,0,1.0000,1.6094,1.6094,0.8000,0.8000,343,67.86,71.64,44.01,5.22,5.00,5.00
N Central,France,Provence,4,Holocene,Mesolithic,34,Gramari,3a3,Gramari 3a3,NA,15,0,1,0,0,1,0,1,0,0,1,0,0,0,0,0,0,0,0,0,0,0,0,0,0,0,0,0,0,0,0,0,0,0,0,0,0,0,NA,0,0,0.27,4,,0,0,1.0000,1.3863,1.3863,0.7500,0.7500,343,67.86,71.64,44.01,5.22,4.00,4.00
N Central,France,Provence,4,Holocene,Mesolithic,34,Gramari,3b1,Gramari 3b1,8866,50,0,2,0,1,2,0,1,0,0,3,0,0,0,0,0,0,0,0,0,0,1,0,1,0,0,0,0,0,0,0,0,0,0,0,0,0,0,NA,0,0,0.22,9,,0,2,1.0000,1.8462,1.8462,0.8264,0.8264,343,67.86,71.64,44.01,5.22,5.76,5.76
N Central,France,Provence,4,Holocene,Mesolithic,34,Gramari,3b2,Gramari 3b2,9886,32,0,1,0,1,2,0,1,0,0,1,0,0,0,0,0,0,0,0,0,0,0,0,1,0,0,0,0,0,0,0,0,0,0,0,0,0,0,NA,0,0,0.22,6,,0,1,1.0000,1.7479,1.7479,0.8163,0.8163,343,67.86,71.64,44.01,5.22,5.44,5.44
N Central,France,Provence,3,End Glacial,Mesolithic,34,Gramari,3c,Gramari 3c,10570,120,0,2,0,1,2,0,2,0,0,1,0,0,0,0,0,0,0,0,0,1,0,0,1,0,0,0,0,0,0,0,0,0,0,0,0,0,0,NA,0,0,0.08,8,,0,2,1.0000,1.8867,1.8867,0.8400,0.8400,343,67.86,74.3,44.01,5.22,6.25,6.25
N Central,France,Languedoc,1,LGM,Solutrean,24,Granouly,c,Granouly c,NA,5,0,0,0,1,0,0,1,0,0,0,0,0,0,0,0,0,0,0,0,0,0,0,0,0,0,0,0,0,0,0,0,0,0,0,0,0,0,0,0,0,0.4,2,,0,0,1.0000,0.6931,0.6931,0.5000,0.5000,105,134.89,163.23,44.671,4.7689,2.00,2.00
N Central,France,Provence,2,Late Pleniglacial,Upper Magdalenian,41,L’Adaouste,12,L’Adaouste 12,14399,18,0,1,0,0,0,0,3,0,0,0,0,0,0,0,0,0,0,0,0,0,0,0,0,0,0,0,0,0,0,0,0,0,0,NA,0,0,0,0,0,0,0.22,4,,0,0,1.0000,NA,0.5623,NA,0.3750,269,39.05,49.14,43.63,5.63,1.60,NA
N Central,France,Provence,2,Late Pleniglacial,Upper Magdalenian,41,L’Adaouste,17,L’Adaouste 17,15028,60,0,1,0,0,0,0,2,0,0,0,1,0,0,0,0,0,0,1,0,1,0,0,0,0,0,0,0,0,0,0,0,0,0,NA,0,0,0,0,0,0,0.1,4,,0,2,1.0000,NA,1.5607,NA,0.7778,269,39.05,49.14,43.63,5.63,4.50,NA
N Central,France,Provence,3,End Glacial,Mesolithic,28,La Montagne,4000,La Montagne 4e3,10062,525,0,25,0,479,9,0,3,1,0,4,1,0,0,0,0,0,0,0,0,0,0,0,0,0,0,0,0,0,0,0,0,0,0,0,0,0,0,0,0,0,0.99,522,,0,0,1.0000,0.3854,0.3854,0.1553,0.1553,92,37.17,47.24,43.7526,5.0778,1.18,1.18
N Central,France,Languedoc,4,Holocene,Mesolithic,17,Le Plaisir,NA,Le Plaisir,9837,3842,0,1,0,2,1,0,0,0,0,1,1,0,116,12,0,0,0,2,0,2,2,0,1,0,0,0,0,0,0,0,0,0,0,NA,0,0,NA,NA,NA,0,0.04,6,,128,7,0.0448,NA,0.7872,NA,0.3149,81,24.83,31.19,43.7187,4.3237,1.46,NA
N Central,France,Provence,4,Holocene,Mesolithic,39,Les Agnels,bb,Les Agnels bb,9689,128,0,0,0,0,1,0,0,0,0,0,0,0,4,0,0,0,0,0,0,0,0,0,0,0,0,0,0,0,0,0,0,0,0,0,0,0,0,0,0,0,0.04,1,,4,0,0.2000,0.5004,0.5004,0.3200,0.3200,229,57.53,58.18,43.8764,5.3954,1.47,1.47
N Central,France,Provence,4,Holocene,Mesolithic,39,Les Agnels,bc,Les Agnels bc,NA,366,0,0,0,0,2,0,0,0,0,1,1,0,12,1,0,0,0,1,0,0,1,0,1,0,0,0,0,0,0,0,0,0,0,0,0,0,0,0,0,0,0.05,4,,13,3,0.2353,1.4355,1.4355,0.6150,0.6150,229,57.53,58.18,43.8764,5.3954,2.60,2.60
N Central,France,Provence,4,Holocene,Mesolithic,39,Les Agnels,scb,Les Agnels scb,9090,917,0,0,0,1,1,0,0,0,0,1,1,0,25,1,0,0,0,1,0,0,0,0,0,0,0,0,0,0,0,0,0,0,0,0,0,0,0,0,0,0,0.03,4,,26,1,0.1333,0.8381,0.8381,0.3434,0.3434,229,57.53,58.18,43.8764,5.3954,1.52,1.52
N Central,France,Provence,4,Holocene,Mesolithic,39,Les Agnels,sgc,Les Agnels sgc,NA,190,0,0,0,0,1,0,0,0,0,1,0,0,5,1,0,0,0,1,0,0,0,0,0,0,0,0,0,0,0,0,0,0,0,0,0,0,0,0,0,0,0.05,2,,6,1,0.2500,1.3031,1.3031,0.6420,0.6420,229,57.53,58.18,43.8764,5.3954,2.79,2.79
N Central,France,Provence,4,Holocene,Mesolithic,39,Les Agnels,sgcl,Les Agnels sgcl,8951,209,0,0,0,0,1,0,0,0,0,1,1,0,6,0,0,0,0,0,0,0,1,0,0,0,0,0,0,0,0,0,0,0,0,0,0,0,0,0,0,0,0.05,3,6,6,1,0.3333,1.2275,1.2275,0.6000,0.6000,229,57.53,58.18,43.8764,5.3954,2.50,2.50
N Central,France,Provence,3,End Glacial,Mesolithic,29,Mourre-Poussiou,3,Mourre-Poussiou 3,10240,66,0,27,0,21,7,0,2,0,0,2,0,0,0,0,0,0,0,0,0,0,0,0,0,0,0,0,0,0,0,0,0,0,0,0,0,0,0,0,0,0,0.89,59,0,0,0,1.0000,1.2078,1.2078,0.6475,0.6475,8,0.58,11.64,43.4364,4.945,2.84,2.84
N Central,France,Provence,3,End Glacial,Epipaleolithic,29,Mourre-Poussiou,4,Mourre-Poussiou 4,NA,11,0,9,0,2,0,0,0,0,0,0,0,0,0,0,0,0,0,0,0,0,0,0,0,0,0,0,0,0,0,0,0,0,0,0,0,0,0,NA,NA,NA,1,11,0,0,0,1.0000,0.4741,0.4741,0.2975,0.2975,8,0.58,11.64,43.4364,4.945,1.42,1.42
N Central,France,Languedoc,3,End Glacial,Mesolithic,20,Oullins,7a,Oullins 7a,10996,431,0,0,0,1,2,0,1,0,0,0,0,0,9,1,0,0,0,0,0,0,0,0,0,0,0,0,0,0,0,0,0,0,0,0,0,0,0,0,0,0,0.03,4,10,10,0,0.2857,1.1275,1.1275,0.5510,0.5510,258,88,107.31,44.3,4.48,2.23,2.23
N Central,France,Languedoc,2,Late Pleniglacial,Upper Magdalenian/ Upper Salpetrian,20,Oullins,7b,Oullins 7b,NA,491,0,0,0,1,1,0,3,0,0,0,0,0,11,1,0,0,0,0,0,0,0,0,0,0,0,0,0,0,0,0,0,0,0,0,0,0,0,0,0,0,0.03,5,12,12,0,0.2941,1.0878,1.0878,0.5398,0.5398,258,88,117.37,44.3,4.48,2.17,2.17
N Central,France,Languedoc,1,LGM,Solutrean,20,Oullins,CCL1,Oullins CCL1,NA,58,1,1,0,0,1,0,1,0,0,0,0,0,NA,NA,0,0,0,0,0,0,0,0,0,0,0,0,0,0,0,0,0,0,0,0,0,0,NA,0,0,0,0.07,4,0,NA,0,NA,NA,NA,NA,NA,258,88,127.02,44.3,4.48,NA,NA
N Central,France,Languedoc,1,LGM,Solutrean,20,Oullins,d,Oullins d,24166,483,12,2,0,1,1,0,2,1,0,0,0,0,NA,NA,0,0,0,0,0,0,0,0,0,0,0,0,0,0,0,0,0,0,0,0,0,0,NA,0,0,0,0.04,19,0,NA,0,NA,NA,NA,NA,NA,258,88,127.02,44.3,4.48,NA,NA
N Central,France,Languedoc,1,LGM,Solutrean,20,Oullins,LCR1,Oullins LCR1,NA,70,2,1,0,0,0,0,1,0,0,0,0,0,NA,NA,0,0,0,0,0,0,0,0,0,0,0,0,0,0,0,0,0,0,0,NA,0,0,NA,0,0,0,0.06,4,0,NA,0,NA,NA,NA,NA,NA,258,88,127.02,44.3,4.48,NA,NA
Southeast,Italy,S Italy,3,End Glacial,Final Epigravettian,53,Pozzo,IV,Pozzo IV,NA,1171,0,5,0,4,87,0,125,159,0,12,9,0,0,61,0,0,73,4,1,NA,1,0,1,0,0,0,0,0,0,4,0,1,0,0,0,0,0,0,0,0,0.47,401,134,134,11,0.7495,1.8506,1.8506,0.8067,0.8067,823,71.33,82.31,41.9716,13.6677,5.17,5.17
Southeast,Italy,S Italy,2,Late Pleniglacial,Early Epigravettian,53,Pozzo,Outside,Pozzo Outside,NA,109,0,0,0,1,7,0,10,6,0,NA,NA,0,0,5,0,0,6,1,0,0,0,0,0,0,0,0,0,0,0,0,0,0,0,0,0,0,0,0,0,0,0.33,24,11,11,1,0.6860,1.7448,1.7448,0.8086,0.8086,823,71.33,87.89,41.9716,13.6677,5.23,5.23
Southeast,Italy,S Italy,2,Late Pleniglacial,Upper Paleolithic,45,Riparo Dalmeri,26?,Riparo Dalmeri 26?,NA,4065,0,0,0,0,10,0,390,0,0,0,0,0,0,0,0,0,2,0,0,0,0,0,1,0,0,0,0,0,1,0,0,0,0,4,0,0,70,0,0,0,0.12,400,2,2,2,0.9950,0.6170,0.1816,0.3123,0.0675,1231,77.13,222.79,45.9951,11.6017,1.07,1.45
Southeast,Italy,S Italy,2,Late Pleniglacial,Upper Paleolithic,45,Riparo Dalmeri,26b,Riparo Dalmeri 26b,NA,38702,0,0,0,0,111,0,4374,4,0,1,1,0,0,10,0,6,0,15,0,0,0,0,0,0,0,0,0,0,7,20,0,0,0,16,0,0,499,0,0,0,0.13,4491,16,16,42,0.9964,0.5343,0.2131,0.2437,0.0748,1231,77.13,222.79,45.9951,11.6017,1.08,1.32
Southeast,Italy,S Italy,2,Late Pleniglacial,Upper Paleolithic,45,Riparo Dalmeri,26c,Riparo Dalmeri 26c,NA,57978,0,0,0,0,252,0,10126,1,0,1,5,0,0,8,0,11,1,18,5,0,0,0,0,0,0,0,0,0,38,49,0,1,0,66,0,0,1333,0,0,0,0.21,10385,20,20,110,0.9981,0.5654,0.2055,0.2647,0.0722,1231,77.13,222.79,45.9951,11.6017,1.08,1.36
Northeast,Italy,NE Italy,2,Late Pleniglacial,Upper Paleolithic,45,Riparo Dalmeri,26c-14,Riparo Dalmeri 26c-14,NA,7833,0,0,0,0,375,0,7445,5,0,2,6,0,0,0,0,0,0,0,0,0,0,0,0,0,0,0,0,0,0,0,0,0,0,0,0,0,0,0,0,0,1,7833,0,0,0,1.0000,0.2061,0.2061,0.0943,0.0943,1231,77.13,222.79,45.9951,11.6017,1.10,1.10
Northeast,Italy,NE Italy,2,Late Pleniglacial,Epigravettian,47,Riparo di Biarzo,5a,Riparo di Biarzo 5a,NA,57,0,0,0,0,10,0,15,8,0,23,1,0,0,0,0,0,0,0,0,0,0,0,0,0,0,0,0,0,0,0,0,0,0,0,0,0,0,0,0,0,1,57,0,0,0,1.0000,1.3694,1.3694,0.7171,0.7171,160,36.07,107.17,46.1186,13.5183,3.54,3.54
Northeast,Italy,NE Italy,2,Late Pleniglacial,Epigravettian,47,Riparo di Biarzo,5b,Riparo di Biarzo 5b,NA,108,0,0,0,0,37,0,18,0,0,53,0,0,0,0,0,0,0,0,0,0,0,0,0,0,0,0,0,0,0,0,0,0,0,0,0,0,0,0,0,0,1,108,0,0,0,1.0000,1.0149,1.0149,0.6140,0.6140,160,36.07,107.17,46.1186,13.5183,2.59,2.59
Northeast,Italy,NE Italy,2,Late Pleniglacial,Epigravettian,47,Riparo di Biarzo,5c,Riparo di Biarzo 5c,NA,334,0,0,0,0,117,0,9,6,0,200,2,0,0,0,0,0,0,0,0,0,0,0,0,0,0,0,0,0,0,0,0,0,0,0,0,0,0,0,0,0,1,334,0,0,0,1.0000,0.8748,0.8748,0.5176,0.5176,160,36.07,107.17,46.1186,13.5183,2.07,2.07
Northeast,Italy,NE Italy,4,Holocene,Sauveterriano,44,Riparo la Cogola,US16,Riparo la Cogola US16,NA,2425,0,0,0,0,9,1,33,2,0,0,2,0,0,0,5,0,0,0,0,0,0,0,0,0,0,0,0,0,4,1,0,1,0,0,0,0,0,0,0,0,0.02,47,5,5,5,0.9038,1.4479,1.4479,0.6367,0.6367,1856,98.93,118.29,45.9717,11.1856,2.75,2.75
Northeast,Italy,NE Italy,4,Holocene,Sauveterriano,44,Riparo la Cogola,US17,Riparo la Cogola US17,NA,82,0,0,0,0,0,0,5,2,0,0,1,0,0,0,0,0,0,0,0,0,0,0,0,0,0,0,0,0,1,0,0,0,0,0,0,0,0,0,0,0,0.11,8,0,0,1,1.0000,1.1491,1.1491,0.6173,0.6173,1856,98.93,118.29,45.9717,11.1856,2.61,2.61
Northeast,Italy,NE Italy,3,End Glacial,Epigravettian_Sauveterriano,44,Riparo la Cogola,US18,Riparo la Cogola US18,NA,4757,0,0,0,0,19,0,60,2,0,1,4,0,0,0,7,1,0,0,2,0,0,0,0,0,0,0,0,0,19,0,0,0,0,0,0,0,0,0,0,0,0.02,86,8,8,21,0.9149,1.4450,1.4450,0.6675,0.6675,1856,98.93,233.58,45.9717,11.1856,3.01,3.01
Northeast,Italy,NE Italy,3,End Glacial,Late epigravettian,44,Riparo la Cogola,US19,Riparo la Cogola US19,NA,5077,0,0,0,0,44,0,107,8,0,3,6,0,0,0,17,0,0,0,2,0,0,0,0,0,0,0,1,0,14,1,0,0,0,0,0,0,0,0,0,0,0.04,168,17,17,18,0.9081,1.4527,1.4527,0.6606,0.6606,1856,98.93,233.58,45.9717,11.1856,2.95,2.95
Northeast,Italy,NE Italy,3,End Glacial,Epigravettian_Sauveterriano,44,Riparo la Cogola,US25,Riparo la Cogola US25,NA,254,0,0,0,0,1,0,16,0,0,1,0,0,0,0,1,0,0,0,0,0,0,0,0,0,0,0,0,0,4,0,0,0,0,0,0,0,0,0,0,0,0.09,18,1,1,4,0.9474,0.9656,0.9656,0.4802,0.4802,1856,98.93,233.58,45.9717,11.1856,1.92,1.92
Northeast,Italy,NE Italy,4,Holocene,Early Mesolithic,42,Riparo Soman,EMeso,Riparo Soman E-Meso,NA,185,0,0,0,0,59,1,35,40,0,18,8,0,0,2,0,11,0,0,1,0,1,0,0,0,0,0,1,0,3,0,1,0,0,1,0,0,3,0,0,0,1,161,13,13,6,0.9253,1.8929,1.8157,0.8001,0.7914,120,104.31,123.44,45.5813,10.8377,4.79,5.00
Northeast,Italy,NE Italy,4,Holocene,Epigravettian_Mesolithic,42,Riparo Soman,EpiMeso,Riparo Soman Epi-Meso,NA,208,0,0,0,0,60,3,80,34,0,11,3,0,0,4,0,9,0,2,0,1,0,0,0,0,0,0,0,0,0,0,0,0,0,0,0,0,1,0,0,0,1,191,13,13,3,0.9363,1.6078,1.5849,0.7365,0.7340,120,104.31,123.44,45.5813,10.8377,3.76,3.80
Northeast,Italy,NE Italy,3,End Glacial,Late Epigravettian,42,Riparo Soman,I,Riparo Soman I,13900,497,0,0,0,2,145,5,77,215,0,14,6,0,0,5,0,0,0,0,3,7,0,0,0,0,0,0,8,0,4,0,0,1,0,1,0,0,4,0,0,0,1,464,5,5,22,0.9893,1.5394,1.4931,0.7020,0.6959,120,104.31,185.64,45.5813,10.8377,3.29,3.36
Northeast,Italy,NE Italy,3,End Glacial,Late Epigravettian,42,Riparo Soman,II,Riparo Soman II,NA,377,0,0,0,18,66,7,86,170,0,1,4,0,0,1,0,1,0,5,7,4,0,0,0,0,0,0,0,0,2,0,0,0,0,2,0,0,3,0,0,0,1,352,2,2,18,0.9944,1.5897,1.5305,0.7105,0.7027,120,104.31,185.64,45.5813,10.8377,3.36,3.45
Northeast,Italy,NE Italy,4,Holocene,Late Mesolithic,42,Riparo Soman,LMeso,Riparo Soman L-Meso,NA,33,0,0,0,0,10,0,4,2,0,13,2,0,0,0,0,0,0,1,0,0,0,0,0,0,0,0,0,0,0,0,0,0,0,0,0,0,1,0,0,0,1,31,0,0,1,1.0000,1.5363,1.4442,0.7291,0.7129,120,104.31,123.44,45.5813,10.8377,3.48,3.69
Northeast,Italy,NE Italy,2,Late Pleniglacial,Upper Paleolithic,43,Riparo Tagliente,1-3b,Riparo Tagliente 1-3b,NA,161,0,0,0,4,121,1,1,2,0,26,6,0,0,0,0,0,0,0,0,0,0,0,0,0,0,0,0,0,0,0,0,0,0,0,0,0,0,0,0,0,1,161,0,0,0,1.0000,0.8411,0.8411,0.4069,0.4069,232,90.57,191.48,45.5403,11.0056,1.69,1.69
Northeast,Italy,NE Italy,2,Late Pleniglacial,Upper Paleolithic,43,Riparo Tagliente,10-10e,Riparo Tagliente 10-10e,15478,379,0,0,0,20,264,2,0,24,0,36,33,0,0,0,0,0,0,0,0,0,0,0,0,0,0,0,0,0,0,0,0,0,0,0,0,0,0,0,0,0,1,379,0,0,0,1.0000,1.0457,1.0457,0.4914,0.4914,232,90.57,191.48,45.5403,11.0056,1.97,1.97
Northeast,Italy,NE Italy,2,Late Pleniglacial,Upper Paleolithic,43,Riparo Tagliente,11-12,Riparo Tagliente 11-12,NA,101,0,0,0,26,7,30,19,15,0,4,0,0,0,0,0,0,0,0,0,0,0,0,0,0,0,0,0,0,0,0,0,0,0,0,0,0,0,0,0,0,1,101,0,0,0,1.0000,1.6203,1.6203,0.7817,0.7817,232,90.57,191.48,45.5403,11.0056,4.58,4.58
Northeast,Italy,NE Italy,2,Late Pleniglacial,Upper Paleolithic,43,Riparo Tagliente,13-15,Riparo Tagliente 13-15,14278,174,0,0,0,45,2,17,107,0,0,0,3,0,0,0,0,0,0,0,0,0,0,0,0,0,0,0,0,0,0,0,0,0,0,0,0,0,0,0,0,0,1,174,0,0,0,1.0000,0.9973,0.9973,0.5450,0.5450,232,90.57,191.48,45.5403,11.0056,2.20,2.20
Northeast,Italy,NE Italy,2,Late Pleniglacial,Upper Paleolithic,43,Riparo Tagliente,16-17,Riparo Tagliente 16-17,16102,91,0,0,0,14,3,1,73,0,0,0,0,0,0,0,0,0,0,0,0,0,0,0,0,0,0,0,0,0,0,0,0,0,0,0,0,0,0,0,0,0,1,91,0,0,0,1.0000,0.6268,0.6268,0.3316,0.3316,232,90.57,191.48,45.5403,11.0056,1.50,1.50
Northeast,Italy,NE Italy,2,Late Pleniglacial,Upper Paleolithic,43,Riparo Tagliente,4-4b,Riparo Tagliente 4-4b,NA,39,0,0,0,2,30,0,0,4,0,2,1,0,0,0,0,0,0,0,0,0,0,0,0,0,0,0,0,0,0,0,0,0,0,0,0,0,0,0,0,0,1,39,0,0,0,1.0000,0.8340,0.8340,0.3918,0.3918,232,90.57,191.48,45.5403,11.0056,1.64,1.64
Northeast,Italy,NE Italy,2,Late Pleniglacial,Upper Paleolithic,43,Riparo Tagliente,5-7b,Riparo Tagliente 5-7b,NA,335,0,1,0,1,253,2,6,10,0,33,29,0,0,0,0,0,0,0,0,0,0,0,0,0,0,0,0,0,0,0,0,0,0,0,0,0,0,0,0,0,1,335,0,0,0,1.0000,0.8943,0.8943,0.4112,0.4112,232,90.57,191.48,45.5403,11.0056,1.70,1.70
Northeast,Italy,NE Italy,2,Late Pleniglacial,Upper Paleolithic,43,Riparo Tagliente,8-9,Riparo Tagliente 8-9,14171,452,0,0,0,9,338,0,3,13,0,32,57,0,0,0,0,0,0,0,0,0,0,0,0,0,0,0,0,0,0,0,0,0,0,0,0,0,0,0,0,0,1,452,0,0,0,1.0000,0.8793,0.8793,0.4186,0.4186,232,90.57,191.48,45.5403,11.0056,1.72,1.72
N Central,France,Languedoc,1,LGM,Early Salpêtrian,23,Salpetriere,18-7,Salpetriere 18-7,NA,112,3,3,0,1,1,0,0,0,0,0,0,0,3,0,0,0,0,0,0,0,0,0,0,0,0,0,0,0,0,0,0,0,0,0,0,0,0,0,0,0,0.1,8,3,3,0,0.7273,1.4990,1.4990,0.7603,0.7603,27,53.65,86.78,43.9396,4.5641,4.17,4.17
N Central,France,Languedoc,1,LGM,Solutrean,23,Salpetriere,24,Salpetriere 24,NA,58,2,1,0,0,0,0,1,0,0,0,0,0,1,0,0,0,0,0,0,0,0,0,0,0,0,0,0,0,0,0,0,0,0,0,0,0,0,0,0,0,0.09,4,1,1,0,0.8000,1.3322,1.3322,0.7200,0.7200,27,53.65,86.78,43.9396,4.5641,3.57,3.57
N Central,France,Languedoc,1,LGM,Pontigardian,23,Salpetriere,30A,Salpetriere 30A,24572,1576,25,10,0,3,3,0,1,0,0,0,0,0,8,2,0,0,0,1,1,0,0,0,0,0,0,0,0,0,0,0,0,0,0,0,0,0,NA,0,0,0,0.03,42,10,10,2,0.8077,NA,1.6166,NA,0.7209,27,53.65,86.78,43.9396,4.5641,3.58,NA
N Central,France,Languedoc,2,Late Pleniglacial,Upper Magdalenian/ Upper Salpetrian,23,Salpetriere,4-3,Salpetriere 4-3,15632,1420,3,1,0,1,0,0,1,1,0,0,0,0,20,1,0,0,0,0,0,0,0,0,0,0,0,0,0,0,0,0,0,0,0,6,0,0,6,0,0,0,0.03,7,21,21,0,0.2500,1.5711,1.0747,0.6963,0.4719,27,53.65,76.96,43.9396,4.5641,1.89,3.29
N Central,France,Languedoc,1,LGM,Early Salpêtrian,23,Salpetriere,5,Salpetriere 5,21641,574,2,2,0,1,0,0,2,1,0,0,0,0,9,1,0,0,0,0,0,0,0,0,0,0,0,0,0,0,0,0,0,0,0,0,0,0,4,0,0,0,0.04,8,10,10,0,0.4444,1.7511,1.5607,0.7686,0.7037,27,53.65,86.78,43.9396,4.5641,3.38,4.32
N Central,France,Languedoc,2,Late Pleniglacial,Upper Magdalenian/ Upper Salpetrian,23,Salpetriere,5-4,Salpetriere 5-4,NA,28,0,1,0,0,3,0,0,0,0,0,0,0,2,0,0,0,0,0,0,0,0,0,0,0,0,0,0,0,0,0,0,0,0,0,0,0,0,0,0,0,0.21,4,2,2,0,0.6667,1.0114,1.0114,0.6111,0.6111,27,53.65,76.96,43.9396,4.5641,2.57,2.57
N Central,France,Languedoc,1,LGM,Early Salpêtrian,23,Salpetriere,6,Salpetriere 6,23482,428,5,9,0,1,0,0,5,0,0,0,0,0,7,1,0,0,0,1,0,0,0,0,0,0,0,0,0,0,0,0,0,0,0,0,0,0,10,0,0,0,0.09,20,8,8,1,0.7143,1.8042,1.6607,0.8139,0.7824,27,53.65,86.78,43.9396,4.5641,4.60,5.37
N Central,France,Languedoc,2,Late Pleniglacial,Upper Magdalenian/ Upper Salpetrian,23,Salpetriere,6; 2-1,"Salpetriere 6, 2-1",NA,339,3,1,0,0,1,0,1,0,0,0,0,0,5,1,0,0,0,1,0,0,0,0,1,0,0,0,0,0,0,0,0,0,0,0,0,0,0,0,0,0,0.04,6,6,6,2,0.5000,1.8288,1.8288,0.7959,0.7959,27,53.65,76.96,43.9396,4.5641,4.90,4.90
N Central,France,Languedoc,1,LGM,Solutrean,23,Salpetriere,e,Salpetriere E,26630,57,2,4,0,1,0,0,1,0,0,0,0,0,1,0,0,0,0,1,0,0,0,0,0,0,0,0,0,0,0,0,0,0,0,0,0,0,0,0,0,0,0.18,8,1,1,1,0.8889,1.6094,1.6094,0.7600,0.7600,27,53.65,86.78,43.9396,4.5641,4.17,4.17
N Central,France,Languedoc,1,LGM,Solutrean,23,Salpetriere,I-v,Salpetriere I-V,23052,2712,74,17,0,2,2,0,2,1,0,0,0,0,5,1,0,0,0,1,0,0,0,0,1,0,0,0,0,0,0,0,0,0,0,0,0,0,14,0,0,0,0.04,98,6,6,2,0.9423,1.3223,1.0892,0.5832,0.4833,27,53.65,86.78,43.9396,4.5641,1.94,2.40
N Central,France,Languedoc,3,End Glacial,Epipaleolithic,22,Saut du Loup,I,Saut du Loup I,NA,9195,0,0,0,0,4,0,0,2,0,3,0,0,233,1,0,0,0,0,0,1,1,0,1,0,0,0,0,0,0,0,0,0,0,0,0,0,0,0,0,0,0.03,9,234,234,3,0.0370,0.3008,0.3008,0.1024,0.1024,292,96.42,115.62,44.3659,4.5349,1.11,1.11
N Central,France,Languedoc,3,End Glacial,Epipaleolithic,22,Saut du Loup,II,Saut du Loup II,13924,5265,0,1,0,0,4,0,1,1,0,3,0,0,145,1,0,0,0,1,1,1,0,0,0,0,0,0,0,0,0,0,0,0,0,0,0,0,0,0,0,0,0.03,10,146,146,3,0.0641,0.4748,0.4748,0.1671,0.1671,292,96.42,115.62,44.3659,4.5349,1.20,1.20
N Central,France,Languedoc,3,End Glacial,Epipaleolithic,22,Saut du Loup,III,Saut du Loup III,13608,19453,0,0,0,0,5,0,2,1,0,3,0,0,523,1,0,0,0,1,1,1,1,0,1,0,0,0,0,0,0,0,0,0,0,0,0,0,0,0,0,0,0.03,11,524,524,5,0.0206,0.2055,0.2055,0.0618,0.0618,292,96.42,115.62,44.3659,4.5349,1.07,1.07
Southeast,Italy,S Italy,3,End Glacial,Epipaleolithic,52,Serratura,4,Serratura 4,11605,107,0,0,0,0,28,0,3,0,0,47,26,0,0,0,0,0,0,0,0,0,1,0,1,0,0,0,0,0,0,1,0,0,0,0,0,0,0,0,0,0,1,104,0,0,3,1.0000,1.2872,1.2872,0.6785,0.6785,64,0.12,0.68,39.9938,15.4211,3.11,3.11
Southeast,Italy,S Italy,3,End Glacial,Epipaleolithic,52,Serratura,5,Serratura 5,11182,407,0,0,0,0,74,0,5,0,0,210,79,0,0,0,0,0,0,0,0,0,8,0,7,0,0,0,0,0,0,24,0,0,0,0,0,0,0,0,0,0,1,368,0,0,39,1.0000,1.3377,1.3377,0.6587,0.6587,64,0.12,0.68,39.9938,15.4211,2.93,2.93
Southeast,Italy,S Italy,3,End Glacial,Sauveterrian,52,Serratura,6,Serratura 6,11182,38,0,0,0,0,7,0,3,0,0,16,8,0,0,0,0,0,0,0,0,0,2,0,0,0,0,0,0,0,0,2,0,0,0,0,0,0,0,0,0,0,1,34,0,0,4,1.0000,1.5143,1.5143,0.7327,0.7327,64,0.12,0.68,39.9938,15.4211,3.74,3.74
Southeast,Italy,S Italy,3,End Glacial,Sauveterrian,52,Serratura,7,Serratura 7,11700,95,0,0,0,0,6,0,0,0,0,48,26,0,0,0,0,0,0,0,0,0,1,0,0,0,0,0,0,0,0,14,0,0,0,0,0,0,0,0,0,0,1,80,0,0,15,1.0000,1.2041,1.2041,0.6440,0.6440,64,0.12,0.68,39.9938,15.4211,2.81,2.81
Southeast,Italy,S Italy,3,End Glacial,Epigravettian-Mesolithic,52,Serratura,8A,Serratura 8A,13390,38,0,0,0,0,10,0,0,0,0,11,11,0,0,0,0,0,0,0,0,0,2,0,1,0,0,0,0,0,0,3,0,0,0,0,0,0,0,0,0,0,1,32,0,0,6,1.0000,1.5202,1.5202,0.7535,0.7535,64,0.12,0.68,39.9938,15.4211,4.06,4.06
Southeast,Italy,S Italy,3,End Glacial,Epigravettian-Mesolithic,52,Serratura,8B,Serratura 8B,13390,143,0,0,0,0,60,0,4,0,0,40,27,0,0,0,0,0,0,0,0,1,1,0,0,0,0,0,0,0,0,10,0,0,0,0,0,0,0,0,0,0,1,131,0,0,12,1.0000,1.3910,1.3910,0.7043,0.7043,64,0.12,0.68,39.9938,15.4211,3.38,3.38
Southeast,Italy,S Italy,3,End Glacial,Final Epigravettian,52,Serratura,8C,Serratura 8C,13390,227,0,0,0,0,101,0,1,0,0,30,34,0,0,0,0,0,0,0,0,0,2,0,0,0,0,0,0,0,0,58,0,0,0,0,0,0,0,0,0,0,1,166,0,0,60,1.0000,1.3278,1.3278,0.6941,0.6941,64,0.12,0.68,39.9938,15.4211,3.27,3.27
N Central,France,Provence,3,End Glacial,Epipaleolithic,33,Soubeyras,C2,Soubeyras C2,NA,74,0,2,0,3,2,0,1,0,0,2,0,0,8,0,0,0,2,0,0,1,0,0,0,0,0,0,0,0,0,0,0,0,0,0,0,0,0,0,0,0,0.28,10,10,10,1,0.5000,1.8314,1.8314,0.7937,0.7937,182,48.97,55.01,43.835,5.205,4.85,4.85
N Central,France,Provence,3,End Glacial,Epipaleolithic,33,Soubeyras,C3a,Soubeyras C3a,NA,1146,0,2,0,0,0,0,0,0,0,0,0,0,53,5,0,0,0,0,0,0,0,0,0,0,0,0,0,0,0,0,0,0,0,0,0,0,0,0,0,0,0.05,2,58,58,0,0.0333,0.4300,0.4300,0.2117,0.2117,182,48.97,55.01,43.835,5.205,1.27,1.27
N Central,France,Provence,3,End Glacial,Epipaleolithic,33,Soubeyras,C3b,Soubeyras C3b,NA,15,0,2,0,2,1,0,0,0,0,0,0,0,0,0,0,0,0,0,0,1,0,0,0,0,0,0,0,0,0,0,0,0,0,0,0,0,0,0,0,0,0.4,5,0,0,1,1.0000,1.3297,1.3297,0.7222,0.7222,182,48.97,55.01,43.835,5.205,3.60,3.60
Northeast,Italy,NW Italy,4,Holocene,Pal sup-Neolithic,50,Stefanin,III,Stefanin III,NA,4411,0,0,0,44,121,0,735,0,0,278,43,0,0,7,0,0,0,0,12,0,24,0,25,0,0,1,18,2,3,0,4,0,0,2,0,0,3,0,29,0,0.3,1221,7,7,85,0.9943,1.4448,1.4228,0.6351,0.6324,684,16.64,16.77,44.1036,8.0181,2.72,2.74
Northeast,Italy,NW Italy,4,Holocene,Late Epigravettian,50,Stefanin,IV,Stefanin IV,9092,3129,0,0,0,9,83,0,1121,0,0,198,47,0,0,7,0,0,0,1,5,0,6,0,11,0,0,0,18,1,3,0,15,5,0,0,0,0,0,0,20,0,0.49,1458,7,7,45,0.9952,1.0265,1.0265,0.4422,0.4422,684,16.64,16.77,44.1036,8.0181,1.79,1.79
Northeast,Italy,NW Italy,2,Late Pleniglacial,Epigravettian,50,Stefanin,IX,Stefanin IX,NA,94,0,0,0,0,2,0,12,0,0,0,0,0,0,0,0,0,0,0,0,0,0,0,0,0,0,0,0,0,0,0,0,0,0,0,0,0,0,0,0,0,0.15,14,0,0,0,1.0000,0.4101,0.4101,0.2449,0.2449,684,16.64,18.46,44.1036,8.0181,1.32,1.32
Northeast,Italy,NW Italy,4,Holocene,Late Epigravettian,50,Stefanin,V,Stefanin V,9129,5507,0,0,0,1,44,0,1118,0,0,174,38,0,0,7,0,5,0,6,0,0,12,0,9,0,0,0,6,4,2,0,27,0,0,0,0,0,0,0,26,0,0.26,1375,12,12,39,0.9913,0.9230,0.9230,0.3915,0.3915,684,16.64,16.77,44.1036,8.0181,1.64,1.64
Northeast,Italy,NW Italy,2,Late Pleniglacial,Late Epigravettian,50,Stefanin,VI,Stefanin VI,14969,387,0,0,0,0,1,0,157,0,0,2,0,0,0,1,0,0,0,0,0,0,1,0,0,0,0,0,1,1,0,0,13,0,0,0,0,0,1,0,0,0,0.46,160,1,1,3,0.9938,0.5269,0.4950,0.2164,0.2075,684,16.64,18.46,44.1036,8.0181,1.26,1.28
Northeast,Italy,NW Italy,3,End Glacial,Late Epigravettian,50,Stefanin,VII,Stefanin VII,NA,285,0,0,0,0,1,0,170,0,0,5,0,0,0,2,0,0,0,0,0,0,0,0,0,0,0,0,0,0,0,0,9,1,0,0,0,0,0,0,0,0,0.66,176,2,2,0,0.9888,0.4370,0.4370,0.1792,0.1792,684,16.64,17.56,44.1036,8.0181,1.22,1.22
Northeast,Italy,NW Italy,3,End Glacial,Late epigravettian,50,Stefanin,VIII,Stefanin VIII,NA,50,0,0,0,0,2,0,24,0,0,0,0,0,0,0,0,0,0,0,0,0,0,0,0,0,0,0,0,0,0,0,0,0,0,0,0,0,0,0,0,0,0.52,26,0,0,0,1.0000,0.2712,0.2712,0.1420,0.1420,684,16.64,17.56,44.1036,8.0181,1.17,1.17
Northeast,Italy,NW Italy,2,Late Pleniglacial,Epigravettian,50,Stefanin,X,Stefanin X,NA,44,0,0,0,0,0,0,18,0,0,0,0,0,0,0,0,0,0,0,0,0,0,0,0,0,0,0,0,0,0,0,0,0,0,0,0,0,0,0,0,0,0.41,18,0,0,0,1.0000,0.0000,0.0000,0.0000,0.0000,684,16.64,18.46,44.1036,8.0181,1.00,1.00
Northeast,Italy,NW Italy,2,Late Pleniglacial,Epigravettian,50,Stefanin,XI,Stefanin XI,NA,29,0,0,0,0,0,0,6,0,0,0,0,0,0,0,0,0,0,0,0,0,0,0,0,0,0,0,0,0,0,0,0,0,0,4,0,0,0,0,0,0,0.34,6,0,0,0,1.0000,0.6730,0.0000,0.4800,0.0000,684,16.64,18.46,44.1036,8.0181,1.00,1.92
Northeast,Italy,NW Italy,2,Late Pleniglacial,Epigravettian,50,Stefanin,XV-XVI,Stefanin XV-XVI,NA,56,0,0,0,0,0,0,35,0,0,0,0,0,0,0,0,0,0,0,0,1,0,0,0,0,0,0,0,0,0,0,0,0,0,0,0,0,0,0,0,0,0.64,35,0,0,1,1.0000,0.1269,0.1269,0.0540,0.0540,NA,NA,NA,NA,NA,1.06,1.06
N Central,France,Languedoc,3,End Glacial,Epipaleolithic,19,Valorgues,10-9,Valorgues 10-9,12644,134,0,2,0,2,2,0,0,0,0,2,0,0,0,0,0,0,0,0,0,2,0,0,0,0,0,0,0,0,0,0,0,0,0,0,0,0,0,0,0,0,0.07,8,0,0,2,1.0000,1.6094,1.6094,0.8000,0.8000,114,60.75,79.51,44.0453,4.4406,5.00,5.00
N Central,France,Languedoc,2,Late Pleniglacial,Epipaleolithic,19,Valorgues,14-11,Valorgues 14-11,14200,187,0,5,0,2,3,0,0,0,0,1,0,0,1,0,0,0,0,0,0,2,0,0,0,0,0,0,0,0,0,0,0,0,0,0,0,0,0,0,0,0,0.07,11,1,1,2,0.9167,1.6308,1.6308,0.7755,0.7755,114,60.75,90,44.0453,4.4406,4.45,4.45
N Central,France,Languedoc,3,End Glacial,Epipaleolithic,19,Valorgues,18-15,Valorgues 18-15,13078,30,0,2,0,1,1,0,0,0,0,0,0,0,0,0,0,0,0,0,0,1,0,0,0,0,0,0,0,0,0,0,0,0,0,0,0,0,0,0,0,0,0.17,4,0,0,1,1.0000,1.3322,1.3322,0.7200,0.7200,114,60.75,79.51,44.0453,4.4406,3.57,3.57
N Central,France,Languedoc,2,Late Pleniglacial,Upper Magdalenian/ Upper Salpetrian,19,Valorgues,19,Valorgues 19,NA,25,0,0,0,2,1,0,0,0,0,0,0,0,0,0,0,0,0,0,0,0,0,0,0,0,0,0,0,0,0,0,0,0,0,0,0,0,0,0,0,0,0.12,3,0,0,0,1.0000,0.6365,0.6365,0.4444,0.4444,114,60.75,90,44.0453,4.4406,1.80,1.80
N Central,France,Languedoc,3,End Glacial,Epipaleolithic,19,Valorgues,7,Valorgues 7,NA,5,0,2,0,0,1,0,0,0,0,0,0,0,1,0,0,0,0,0,0,0,0,0,0,0,0,0,0,0,0,0,0,0,0,0,0,0,0,0,0,0,0.8,3,1,1,0,0.7500,1.0397,1.0397,0.6250,0.6250,114,60.75,79.51,44.0453,4.4406,2.67,2.67
N Central,France,Languedoc,3,End Glacial,Epipaleolithic,19,Valorgues,8,Valorgues 8,12885,95,0,3,0,2,3,0,0,0,0,1,0,0,1,0,0,0,0,0,0,2,0,0,0,0,0,0,0,0,0,0,0,0,0,0,0,0,0,0,0,0,0.13,9,1,1,2,0.9000,1.7046,1.7046,0.8056,0.8056,114,60.75,79.51,44.0453,4.4406,5.14,5.14
N Central,France,Provence,4,Holocene,Mesolithic,38,Vauloubeau,A,Vauloubeau A,NA,26,0,1,0,1,1,0,0,0,0,2,0,0,4,5,0,0,0,1,0,0,0,0,0,0,0,0,0,0,0,0,0,0,0,0,0,0,0,NA,NA,0,0.58,5,9,9,1,0.3571,1.7095,1.7095,0.7822,0.7822,363,64.92,65.56,43.944,5.386,4.59,4.59
N Central,France,Provence,4,Holocene,Mesolithic,38,Vauloubeau,CeB,Vauloubeau CeB,NA,83,0,0,0,1,1,0,0,0,0,1,0,0,26,8,0,0,0,0,0,0,1,0,0,0,0,0,0,0,0,0,0,0,0,NA,0,0,0,NA,0,0,0.46,3,34,34,1,0.0811,NA,0.9706,NA,0.4848,363,64.92,65.56,43.944,5.386,1.94,NA
N Central,France,Provence,4,Holocene,Mesolithic,38,Vauloubeau,D,Vauloubeau D,NA,48,0,0,0,1,1,0,0,1,0,1,0,0,13,2,0,0,0,0,0,0,0,0,0,0,0,0,0,0,0,0,0,0,0,0,0,0,0,NA,0,0,0.4,4,15,15,0,0.2105,1.1165,1.1165,0.5097,0.5097,363,64.92,65.56,43.944,5.386,2.04,2.04
